{"type":"FeatureCollection","bbox":[-122.66,37.76,-122.4,37.96],"features":[{"type":"Feature","properties":{},"geometry":{"type":"Polygon","coordinates":[[[-122.4,37.76],[-122.5119,37.76],[-122.5131,37.7672],[-122.5131,37.776],[-122.5146,37.7785],[-122.5147,37.7811],[-122.5138,37.7815],[-122.5127,37.7841],[-122.5098,37.7848],[-122.5061,37.7882],[-122.4996,37.7887],[-122.4965,37.7873],[-122.4947,37.7881],[-122.4922,37.7879],[-122.4898,37.7895],[-122.4871,37.7896],[-122.4836,37.794],[-122.4802,37.8014],[-122.4777,37.8109],[-122.4765,37.8108],[-122.4758,37.8095],[-122.4709,37.8087],[-122.4665,37.806],[-122.4629,37.8051],[-122.4487,37.8067],[-122.44,37.8088],[-122.4404,37.8081],[-122.4475,37.8064],[-122.4473,37.8053],[-122.4425,37.806],[-122.4425,37.8071],[-122.4358,37.8076],[-122.4356,37.8068],[-122.4342,37.807],[-122.4335,37.8056],[-122.4327,37.8057],[-122.4324,37.806],[-122.4325,37.8066],[-122.4324,37.806],[-122.4322,37.8061],[-122.4326,37.8085],[-122.432,37.8072],[-122.4314,37.8073],[-122.4317,37.809],[-122.4309,37.8073],[-122.4303,37.8075],[-122.4306,37.8092],[-122.4298,37.8078],[-122.427,37.8081],[-122.428,37.8086],[-122.4275,37.8088],[-122.4268,37.8081],[-122.4265,37.8099],[-122.4259,37.8105],[-122.4249,37.8108],[-122.4243,37.8105],[-122.4264,37.8098],[-122.4265,37.8083],[-122.4257,37.8071],[-122.4239,37.8066],[-122.4211,37.8086],[-122.4228,37.8103],[-122.4204,37.809],[-122.4205,37.8083],[-122.4179,37.8086],[-122.4199,37.8091],[-122.4183,37.8092],[-122.4173,37.8081],[-122.4162,37.8085],[-122.4204,37.8115],[-122.419,37.8108],[-122.4195,37.8114],[-122.4188,37.8115],[-122.4154,37.8092],[-122.4118,37.8095],[-122.4105,37.8088],[-122.4113,37.8109],[-122.4104,37.8114],[-122.4094,37.8087],[-122.4074,37.8079],[-122.4066,37.8078],[-122.4068,37.81],[-122.4061,37.81],[-122.4053,37.8069],[-122.4044,37.8089],[-122.4047,37.807],[-122.404,37.8066],[-122.4024,37.8078],[-122.4034,37.8065],[-122.4028,37.806],[-122.4009,37.8076],[-122.4004,37.8073],[-122.401,37.8036],[-122.4,37.8037],[-122.4,37.76]],[[-122.5003,37.7655],[-122.5003,37.765],[-122.4999,37.7649],[-122.4993,37.7651],[-122.5003,37.7655]],[[-122.4861,37.7665],[-122.487,37.7661],[-122.4855,37.7664],[-122.4861,37.7665]],[[-122.4994,37.7675],[-122.5,37.7672],[-122.4986,37.7663],[-122.4994,37.7675]],[[-122.4891,37.7675],[-122.4899,37.7667],[-122.4887,37.7673],[-122.4891,37.7675]],[[-122.4819,37.7678],[-122.4826,37.7671],[-122.4812,37.7677],[-122.4819,37.7678]],[[-122.5024,37.7702],[-122.503,37.7697],[-122.5017,37.7691],[-122.5026,37.7686],[-122.5011,37.7683],[-122.5024,37.7702]],[[-122.5035,37.7708],[-122.5032,37.7701],[-122.5024,37.7703],[-122.5027,37.7709],[-122.5035,37.7708]],[[-122.4825,37.7706],[-122.4819,37.7702],[-122.4811,37.7708],[-122.4814,37.7711],[-122.4825,37.7706]],[[-122.4925,37.7717],[-122.4954,37.7717],[-122.4954,37.7709],[-122.4944,37.7705],[-122.4925,37.7717]],[[-122.4708,37.7665],[-122.4707,37.7669],[-122.4708,37.7668],[-122.4708,37.7665]],[[-122.4698,37.7685],[-122.4703,37.7681],[-122.4695,37.7685],[-122.4698,37.7685]],[[-122.4773,37.7705],[-122.4772,37.7675],[-122.4732,37.7674],[-122.4716,37.7696],[-122.4743,37.7694],[-122.4773,37.7705]],[[-122.4614,37.7708],[-122.4622,37.7708],[-122.4612,37.7706],[-122.4614,37.7708]],[[-122.4709,37.7888],[-122.4719,37.7875],[-122.4702,37.7876],[-122.4709,37.7888]],[[-122.4482,37.8035],[-122.4484,37.8025],[-122.4473,37.802],[-122.4473,37.8038],[-122.4482,37.8035]],[[-122.4202,37.8042],[-122.4215,37.8036],[-122.4201,37.8038],[-122.4202,37.8042]]]}},{"type":"Feature","properties":{},"geometry":{"type":"Polygon","coordinates":[[[-122.66,37.9089],[-122.6527,37.9064],[-122.651,37.9055],[-122.6515,37.9041],[-122.6464,37.9021],[-122.6509,37.9063],[-122.6531,37.9068],[-122.6574,37.9099],[-122.6594,37.91],[-122.66,37.9108],[-122.66,37.9581],[-122.6571,37.9544],[-122.66,37.9586],[-122.66,37.96],[-122.6127,37.96],[-122.613,37.9578],[-122.6139,37.9585],[-122.6155,37.9569],[-122.6205,37.9567],[-122.6212,37.9559],[-122.6235,37.9564],[-122.6282,37.9599],[-122.6256,37.9555],[-122.6269,37.9546],[-122.6267,37.9537],[-122.628,37.9518],[-122.6286,37.9513],[-122.63,37.9525],[-122.6305,37.9519],[-122.6335,37.9527],[-122.6306,37.951],[-122.6287,37.9476],[-122.63,37.9462],[-122.6327,37.9475],[-122.6306,37.9451],[-122.6326,37.9451],[-122.632,37.9428],[-122.6336,37.9416],[-122.6371,37.9419],[-122.6386,37.9407],[-122.6375,37.9356],[-122.6359,37.9339],[-122.6373,37.9383],[-122.6363,37.9401],[-122.6327,37.9388],[-122.6325,37.9406],[-122.6301,37.9425],[-122.6284,37.9416],[-122.628,37.9403],[-122.6278,37.9418],[-122.6295,37.9441],[-122.6231,37.9465],[-122.6267,37.9468],[-122.6255,37.9475],[-122.6271,37.9504],[-122.6251,37.9516],[-122.6253,37.9533],[-122.6224,37.9549],[-122.6223,37.9541],[-122.6211,37.9539],[-122.6212,37.955],[-122.6199,37.956],[-122.6129,37.9558],[-122.6119,37.9567],[-122.6127,37.957],[-122.6125,37.958],[-122.6114,37.9583],[-122.6123,37.96],[-122.4909,37.96],[-122.4864,37.9465],[-122.4838,37.9465],[-122.4837,37.9457],[-122.4817,37.9455],[-122.4774,37.9426],[-122.4805,37.9426],[-122.4827,37.9406],[-122.4843,37.9409],[-122.489,37.937],[-122.4919,37.938],[-122.4921,37.9392],[-122.4932,37.9384],[-122.4971,37.9395],[-122.4985,37.9415],[-122.5069,37.9443],[-122.5096,37.9464],[-122.5101,37.9459],[-122.5081,37.9444],[-122.509,37.944],[-122.5072,37.9431],[-122.5103,37.9429],[-122.5154,37.944],[-122.519,37.942],[-122.5204,37.9432],[-122.5211,37.9422],[-122.5281,37.9447],[-122.5301,37.9445],[-122.5327,37.9429],[-122.5358,37.9432],[-122.5376,37.9442],[-122.539,37.9473],[-122.544,37.9484],[-122.5455,37.9515],[-122.5459,37.951],[-122.5443,37.948],[-122.5394,37.9468],[-122.5378,37.9431],[-122.533,37.9417],[-122.5338,37.9408],[-122.5338,37.9398],[-122.5331,37.9387],[-122.5335,37.941],[-122.5291,37.9437],[-122.5191,37.9409],[-122.5222,37.9384],[-122.5216,37.9376],[-122.5144,37.9432],[-122.5108,37.9417],[-122.5048,37.9418],[-122.5045,37.9412],[-122.5066,37.9399],[-122.5046,37.9402],[-122.5058,37.9374],[-122.5053,37.9375],[-122.5041,37.9319],[-122.503,37.9311],[-122.5024,37.9279],[-122.5011,37.9265],[-122.494,37.9217],[-122.4859,37.9209],[-122.4792,37.9163],[-122.4749,37.9174],[-122.4747,37.9162],[-122.4787,37.9155],[-122.4774,37.9128],[-122.4778,37.9146],[-122.477,37.9148],[-122.4763,37.9134],[-122.4767,37.9149],[-122.476,37.9152],[-122.4753,37.9138],[-122.4755,37.9152],[-122.4746,37.9156],[-122.4728,37.9092],[-122.4737,37.9093],[-122.4749,37.9121],[-122.4744,37.9099],[-122.4751,37.9096],[-122.476,37.9113],[-122.4772,37.9125],[-122.4755,37.9089],[-122.4727,37.9083],[-122.4764,37.9082],[-122.4767,37.909],[-122.4763,37.905],[-122.4722,37.9033],[-122.4709,37.9017],[-122.4693,37.902],[-122.4686,37.9],[-122.4664,37.8981],[-122.4622,37.8975],[-122.4608,37.8956],[-122.4583,37.8942],[-122.4488,37.8941],[-122.4446,37.8884],[-122.4444,37.8865],[-122.4389,37.8831],[-122.4383,37.8817],[-122.4391,37.8801],[-122.4412,37.8811],[-122.4432,37.8802],[-122.4445,37.8787],[-122.4437,37.8761],[-122.4489,37.8746],[-122.4502,37.8722],[-122.455,37.873],[-122.4564,37.8724],[-122.4567,37.873],[-122.4572,37.8714],[-122.4592,37.8725],[-122.4601,37.8742],[-122.4621,37.8734],[-122.4631,37.8719],[-122.4624,37.8686],[-122.4583,37.8653],[-122.4581,37.862],[-122.469,37.8687],[-122.4738,37.8749],[-122.4742,37.8775],[-122.4713,37.8809],[-122.4737,37.8853],[-122.4826,37.8909],[-122.4833,37.8903],[-122.4886,37.8954],[-122.4919,37.8949],[-122.4922,37.894],[-122.4933,37.8936],[-122.4989,37.8938],[-122.5002,37.8943],[-122.5011,37.8968],[-122.5003,37.897],[-122.4993,37.8953],[-122.4988,37.8956],[-122.4997,37.8973],[-122.5021,37.8978],[-122.5022,37.8962],[-122.5031,37.8984],[-122.5024,37.8953],[-122.5035,37.8953],[-122.5043,37.8942],[-122.5034,37.8927],[-122.5037,37.8906],[-122.5011,37.8878],[-122.5014,37.8849],[-122.4993,37.8826],[-122.4986,37.8832],[-122.4999,37.886],[-122.4989,37.8861],[-122.4959,37.8786],[-122.4972,37.8775],[-122.4993,37.8781],[-122.5022,37.8804],[-122.5041,37.8807],[-122.5036,37.882],[-122.5046,37.8831],[-122.5071,37.8837],[-122.5096,37.8829],[-122.5115,37.8839],[-122.5117,37.8851],[-122.509,37.8865],[-122.5104,37.8881],[-122.5122,37.8889],[-122.515,37.8861],[-122.5171,37.8862],[-122.518,37.8884],[-122.5187,37.8882],[-122.5198,37.8892],[-122.5183,37.8894],[-122.518,37.8927],[-122.5203,37.8912],[-122.5193,37.8902],[-122.5201,37.8898],[-122.5232,37.8934],[-122.5227,37.894],[-122.5234,37.8955],[-122.5248,37.896],[-122.5231,37.889],[-122.5206,37.8863],[-122.5222,37.8854],[-122.5192,37.8833],[-122.5187,37.8827],[-122.5149,37.882],[-122.5147,37.8806],[-122.5127,37.8801],[-122.5131,37.8793],[-122.5124,37.8779],[-122.5065,37.8738],[-122.5047,37.8741],[-122.506,37.8758],[-122.5051,37.8754],[-122.5033,37.8764],[-122.5052,37.8752],[-122.5041,37.8738],[-122.5046,37.8723],[-122.5003,37.8718],[-122.4998,37.8707],[-122.4976,37.8719],[-122.4988,37.8707],[-122.4982,37.87],[-122.4963,37.8711],[-122.4976,37.869],[-122.4974,37.8678],[-122.4963,37.8662],[-122.4949,37.866],[-122.4954,37.8654],[-122.4945,37.8645],[-122.4931,37.8655],[-122.4944,37.8644],[-122.4938,37.8639],[-122.492,37.865],[-122.4936,37.8638],[-122.4931,37.8634],[-122.4908,37.8641],[-122.4885,37.8637],[-122.4896,37.8624],[-122.4883,37.8623],[-122.4873,37.8611],[-122.4862,37.8614],[-122.484,37.8594],[-122.4836,37.8601],[-122.478,37.8588],[-122.4787,37.8575],[-122.478,37.8567],[-122.4787,37.8539],[-122.4782,37.8535],[-122.4798,37.8498],[-122.4798,37.8475],[-122.4777,37.8467],[-122.4766,37.8423],[-122.4754,37.8419],[-122.4741,37.8392],[-122.4716,37.8366],[-122.4728,37.8319],[-122.4739,37.8322],[-122.4745,37.8336],[-122.478,37.833],[-122.477,37.8311],[-122.4784,37.8309],[-122.4781,37.8253],[-122.4833,37.8256],[-122.4846,37.8269],[-122.4862,37.8262],[-122.4912,37.8266],[-122.4958,37.8221],[-122.4996,37.8219],[-122.4991,37.8199],[-122.5007,37.8199],[-122.5017,37.8215],[-122.5045,37.821],[-122.5059,37.8231],[-122.5113,37.8247],[-122.5159,37.8253],[-122.5169,37.8247],[-122.5185,37.8253],[-122.5229,37.8249],[-122.5246,37.8234],[-122.5242,37.8226],[-122.5253,37.8225],[-122.5255,37.8211],[-122.5289,37.8201],[-122.5293,37.8187],[-122.5277,37.8151],[-122.5297,37.8151],[-122.5301,37.8156],[-122.5292,37.8162],[-122.5318,37.8192],[-122.532,37.8212],[-122.5335,37.8215],[-122.5344,37.8234],[-122.5362,37.824],[-122.5344,37.8255],[-122.5356,37.8285],[-122.5396,37.8316],[-122.5417,37.8316],[-122.5418,37.8325],[-122.5431,37.832],[-122.5463,37.8342],[-122.5493,37.834],[-122.5488,37.836],[-122.55,37.8383],[-122.5512,37.839],[-122.5512,37.8402],[-122.5526,37.8416],[-122.5533,37.8411],[-122.5541,37.8423],[-122.5554,37.8418],[-122.5559,37.8446],[-122.5596,37.8455],[-122.5588,37.8479],[-122.5607,37.8481],[-122.5623,37.8511],[-122.562,37.852],[-122.5665,37.854],[-122.5702,37.8535],[-122.5703,37.8546],[-122.5732,37.8556],[-122.5749,37.8583],[-122.5773,37.8595],[-122.5805,37.8594],[-122.5818,37.857],[-122.5825,37.8575],[-122.5821,37.8583],[-122.5848,37.8593],[-122.5849,37.8604],[-122.5888,37.8615],[-122.5886,37.8622],[-122.5905,37.8648],[-122.602,37.8755],[-122.6045,37.8752],[-122.6112,37.8781],[-122.613,37.8778],[-122.6131,37.8786],[-122.6164,37.8773],[-122.619,37.8773],[-122.6212,37.8782],[-122.6212,37.8791],[-122.6237,37.8809],[-122.6277,37.8809],[-122.629,37.8818],[-122.6284,37.8851],[-122.6319,37.8872],[-122.6332,37.8886],[-122.633,37.8895],[-122.6389,37.8946],[-122.647,37.8996],[-122.66,37.9044],[-122.66,37.9089]],[[-122.5196,37.8827],[-122.5225,37.8844],[-122.5209,37.8819],[-122.5196,37.8827]],[[-122.5266,37.8322],[-122.538,37.8315],[-122.5361,37.8311],[-122.5344,37.8292],[-122.5259,37.8312],[-122.5266,37.8322]],[[-122.5239,37.832],[-122.5257,37.8324],[-122.5258,37.8323],[-122.525,37.8317],[-122.5239,37.832]],[[-122.5204,37.9318],[-122.5198,37.93],[-122.5202,37.9286],[-122.5194,37.9286],[-122.5185,37.9323],[-122.5204,37.9318]],[[-122.5223,37.933],[-122.5236,37.9332],[-122.5218,37.9323],[-122.5216,37.9337],[-122.5223,37.933]],[[-122.5226,37.9408],[-122.526,37.942],[-122.5261,37.9413],[-122.5236,37.9404],[-122.526,37.9405],[-122.5258,37.9398],[-122.522,37.9392],[-122.5203,37.9401],[-122.5216,37.9405],[-122.5223,37.9397],[-122.5226,37.9408]],[[-122.594,37.9466],[-122.5979,37.9473],[-122.5966,37.946],[-122.5972,37.9435],[-122.5962,37.9444],[-122.5951,37.9439],[-122.5951,37.9462],[-122.5916,37.9449],[-122.5923,37.9469],[-122.5932,37.946],[-122.5937,37.9471],[-122.594,37.9466]],[[-122.6066,37.951],[-122.6088,37.9506],[-122.6094,37.9481],[-122.6058,37.9479],[-122.6051,37.9469],[-122.6013,37.9477],[-122.6007,37.9472],[-122.5992,37.9503],[-122.6009,37.9502],[-122.6009,37.9489],[-122.6017,37.9486],[-122.6034,37.9489],[-122.604,37.9505],[-122.6028,37.9505],[-122.6027,37.9515],[-122.6037,37.952],[-122.6025,37.9527],[-122.6019,37.9543],[-122.6032,37.9532],[-122.6049,37.9533],[-122.6054,37.9518],[-122.6065,37.952],[-122.6066,37.951]],[[-122.5801,37.9543],[-122.5825,37.9548],[-122.5811,37.9533],[-122.5798,37.9538],[-122.5779,37.9533],[-122.5776,37.9544],[-122.5763,37.9548],[-122.5741,37.9533],[-122.5731,37.9503],[-122.5738,37.9528],[-122.5732,37.953],[-122.5763,37.9558],[-122.5772,37.9562],[-122.5772,37.9554],[-122.5801,37.9543]],[[-122.5138,37.8905],[-122.5154,37.8903],[-122.515,37.8894],[-122.5147,37.8892],[-122.5138,37.8905]],[[-122.4707,37.8787],[-122.4721,37.8793],[-122.4676,37.876],[-122.4661,37.8766],[-122.4666,37.8755],[-122.4648,37.8757],[-122.464,37.8737],[-122.4628,37.8738],[-122.464,37.8757],[-122.4679,37.8776],[-122.4678,37.8782],[-122.4652,37.8776],[-122.4617,37.8746],[-122.4627,37.8767],[-122.4653,37.8792],[-122.4669,37.8797],[-122.4663,37.8807],[-122.471,37.8826],[-122.4701,37.8819],[-122.4706,37.8811],[-122.4678,37.8794],[-122.4682,37.8787],[-122.4712,37.8805],[-122.4699,37.8794],[-122.4707,37.8787]]]}},{"type":"Feature","properties":{},"geometry":{"type":"Polygon","coordinates":[[[-122.5168,37.7798],[-122.5179,37.7804],[-122.5172,37.7807],[-122.5168,37.7798]]]}},{"type":"Feature","properties":{},"geometry":{"type":"Polygon","coordinates":[[[-122.5152,37.7779],[-122.517,37.7783],[-122.5156,37.7789],[-122.5152,37.7779]]]}},{"type":"Feature","properties":{},"geometry":{"type":"Polygon","coordinates":[[[-122.4189,37.8626],[-122.4212,37.8588],[-122.4198,37.8566],[-122.4199,37.8546],[-122.4188,37.8525],[-122.4222,37.8542],[-122.4289,37.8555],[-122.4309,37.8555],[-122.4343,37.8535],[-122.4395,37.8556],[-122.441,37.8551],[-122.4426,37.8561],[-122.4424,37.8584],[-122.4464,37.861],[-122.4414,37.8626],[-122.4389,37.8683],[-122.4372,37.8665],[-122.4348,37.867],[-122.4347,37.8696],[-122.4305,37.8722],[-122.4271,37.8704],[-122.4249,37.8706],[-122.4233,37.8695],[-122.4217,37.8636],[-122.4189,37.8626]]]}},{"type":"Feature","properties":{},"geometry":{"type":"Polygon","coordinates":[[[-122.4241,37.8286],[-122.4215,37.8272],[-122.4205,37.8256],[-122.4217,37.8251],[-122.4244,37.8267],[-122.4254,37.8284],[-122.4241,37.8286]]]}},{"type":"Feature","properties":{},"geometry":{"type":"Polygon","coordinates":[[[-122.4768,37.7682],[-122.4771,37.7692],[-122.4763,37.7697],[-122.4736,37.7687],[-122.4746,37.7677],[-122.4768,37.7682]],[[-122.4746,37.7688],[-122.4753,37.7688],[-122.4744,37.7687],[-122.4746,37.7688]]]}}]}
